{"fetched_at":"2026-07-11T09:23:57.375Z","source":"https://celestrak.org/NORAD/elements/gp.php?GROUP=oneweb&FORMAT=JSON","constellation":"oneweb","records":[{"OBJECT_NAME":"ONEWEB-0371","OBJECT_ID":"2021-090U","EPOCH":"2026-07-10T16:38:01.189248","CLASSIFICATION_TYPE":"U","MEAN_MOTION":13.19724768,"ECCENTRICITY":0.0002068,"INCLINATION":87.9184,"RA_OF_ASC_NODE":300.2883,"ARG_OF_PERICENTER":98.3233,"MEAN_ANOMALY":261.8134,"EPHEMERIS_TYPE":0,"NORAD_CAT_ID":49297,"ELEMENT_SET_NO":999,"REV_AT_EPOCH":22955,"BSTAR":-0.000059151,"MEAN_MOTION_DOT":-1.1e-7,"MEAN_MOTION_DDOT":0},{"OBJECT_NAME":"ONEWEB-0372","OBJECT_ID":"2021-090V","EPOCH":"2026-07-10T04:36:48.497472","CLASSIFICATION_TYPE":"U","MEAN_MOTION":13.20773628,"ECCENTRICITY":0.0002056,"INCLINATION":87.9187,"RA_OF_ASC_NODE":269.8585,"ARG_OF_PERICENTER":101.2314,"MEAN_ANOMALY":258.9051,"EPHEMERIS_TYPE":0,"NORAD_CAT_ID":49298,"ELEMENT_SET_NO":999,"REV_AT_EPOCH":23287,"BSTAR":0.000037396882,"MEAN_MOTION_DOT":2.8e-7,"MEAN_MOTION_DDOT":0},{"OBJECT_NAME":"ONEWEB-0373","OBJECT_ID":"2021-090W","EPOCH":"2026-07-11T04:51:33.128928","CLASSIFICATION_TYPE":"U","MEAN_MOTION":13.20772667,"ECCENTRICITY":0.0002128,"INCLINATION":87.9185,"RA_OF_ASC_NODE":269.6566,"ARG_OF_PERICENTER":96.1395,"MEAN_ANOMALY":263.9981,"EPHEMERIS_TYPE":0,"NORAD_CAT_ID":49299,"ELEMENT_SET_NO":999,"REV_AT_EPOCH":23419,"BSTAR":-0.00014476,"MEAN_MOTION_DOT":-4.6e-7,"MEAN_MOTION_DDOT":0},{"OBJECT_NAME":"ONEWEB-0374","OBJECT_ID":"2021-090X","EPOCH":"2026-07-10T06:12:17.383392","CLASSIFICATION_TYPE":"U","MEAN_MOTION":13.14502596,"ECCENTRICITY":0.00016338,"INCLINATION":87.898,"RA_OF_ASC_NODE":285.1001,"ARG_OF_PERICENTER":90.8626,"MEAN_ANOMALY":269.2691,"EPHEMERIS_TYPE":0,"NORAD_CAT_ID":49300,"ELEMENT_SET_NO":999,"REV_AT_EPOCH":23059,"BSTAR":0.0005122391,"MEAN_MOTION_DOT":0.00000203,"MEAN_MOTION_DDOT":0},{"OBJECT_NAME":"ONEWEB-0375","OBJECT_ID":"2021-090Y","EPOCH":"2026-07-11T04:34:35.232384","CLASSIFICATION_TYPE":"U","MEAN_MOTION":13.20772765,"ECCENTRICITY":0.0001813,"INCLINATION":87.9187,"RA_OF_ASC_NODE":269.6511,"ARG_OF_PERICENTER":83.7951,"MEAN_ANOMALY":276.3388,"EPHEMERIS_TYPE":0,"NORAD_CAT_ID":49301,"ELEMENT_SET_NO":999,"REV_AT_EPOCH":23369,"BSTAR":0.0000052435,"MEAN_MOTION_DOT":1.5e-7,"MEAN_MOTION_DDOT":0},{"OBJECT_NAME":"ONEWEB-0376","OBJECT_ID":"2021-090Z","EPOCH":"2026-07-10T16:35:44.480256","CLASSIFICATION_TYPE":"U","MEAN_MOTION":13.19725845,"ECCENTRICITY":0.0002054,"INCLINATION":87.9188,"RA_OF_ASC_NODE":300.2876,"ARG_OF_PERICENTER":104.1754,"MEAN_ANOMALY":255.9607,"EPHEMERIS_TYPE":0,"NORAD_CAT_ID":49302,"ELEMENT_SET_NO":999,"REV_AT_EPOCH":22955,"BSTAR":-0.00010159,"MEAN_MOTION_DOT":-2.8e-7,"MEAN_MOTION_DDOT":0},{"OBJECT_NAME":"ONEWEB-0377","OBJECT_ID":"2021-090AA","EPOCH":"2026-07-11T04:15:23.777856","CLASSIFICATION_TYPE":"U","MEAN_MOTION":13.20772484,"ECCENTRICITY":0.0001686,"INCLINATION":87.921,"RA_OF_ASC_NODE":269.6562,"ARG_OF_PERICENTER":90.201,"MEAN_ANOMALY":269.9317,"EPHEMERIS_TYPE":0,"NORAD_CAT_ID":49303,"ELEMENT_SET_NO":999,"REV_AT_EPOCH":23368,"BSTAR":0.0003765,"MEAN_MOTION_DOT":0.00000166,"MEAN_MOTION_DDOT":0},{"OBJECT_NAME":"ONEWEB-0378","OBJECT_ID":"2021-090AB","EPOCH":"2026-07-11T04:44:29.967648","CLASSIFICATION_TYPE":"U","MEAN_MOTION":13.20771471,"ECCENTRICITY":0.0001963,"INCLINATION":87.9183,"RA_OF_ASC_NODE":269.6557,"ARG_OF_PERICENTER":96.959,"MEAN_ANOMALY":263.1767,"EPHEMERIS_TYPE":0,"NORAD_CAT_ID":49304,"ELEMENT_SET_NO":999,"REV_AT_EPOCH":23295,"BSTAR":-0.00015088,"MEAN_MOTION_DOT":-4.8e-7,"MEAN_MOTION_DDOT":0},{"OBJECT_NAME":"ONEWEB-0379","OBJECT_ID":"2021-090AC","EPOCH":"2026-07-09T06:20:31.134336","CLASSIFICATION_TYPE":"U","MEAN_MOTION":13.14501939,"ECCENTRICITY":0.00018869,"INCLINATION":87.8976,"RA_OF_ASC_NODE":285.3088,"ARG_OF_PERICENTER":102.1027,"MEAN_ANOMALY":258.0314,"EPHEMERIS_TYPE":0,"NORAD_CAT_ID":49305,"ELEMENT_SET_NO":999,"REV_AT_EPOCH":23046,"BSTAR":0.00046664491,"MEAN_MOTION_DOT":0.00000186,"MEAN_MOTION_DDOT":0},{"OBJECT_NAME":"ONEWEB-0380","OBJECT_ID":"2021-090AD","EPOCH":"2026-07-10T16:31:12.302112","CLASSIFICATION_TYPE":"U","MEAN_MOTION":13.19726361,"ECCENTRICITY":0.0002018,"INCLINATION":87.9182,"RA_OF_ASC_NODE":300.2915,"ARG_OF_PERICENTER":94.2723,"MEAN_ANOMALY":265.8641,"EPHEMERIS_TYPE":0,"NORAD_CAT_ID":49306,"ELEMENT_SET_NO":999,"REV_AT_EPOCH":22952,"BSTAR":-0.000062451,"MEAN_MOTION_DOT":-1.2e-7,"MEAN_MOTION_DDOT":0},{"OBJECT_NAME":"ONEWEB-0381","OBJECT_ID":"2021-090AE","EPOCH":"2026-07-11T04:10:19.681824","CLASSIFICATION_TYPE":"U","MEAN_MOTION":13.20773123,"ECCENTRICITY":0.0001897,"INCLINATION":87.919,"RA_OF_ASC_NODE":269.6611,"ARG_OF_PERICENTER":91.7139,"MEAN_ANOMALY":268.4211,"EPHEMERIS_TYPE":0,"NORAD_CAT_ID":49307,"ELEMENT_SET_NO":999,"REV_AT_EPOCH":23299,"BSTAR":0.000046202,"MEAN_MOTION_DOT":3.2e-7,"MEAN_MOTION_DDOT":0},{"OBJECT_NAME":"ONEWEB-0382","OBJECT_ID":"2021-090AF","EPOCH":"2026-07-10T04:12:47.817216","CLASSIFICATION_TYPE":"U","MEAN_MOTION":13.20771662,"ECCENTRICITY":0.00017994,"INCLINATION":87.9183,"RA_OF_ASC_NODE":269.8543,"ARG_OF_PERICENTER":96.1327,"MEAN_ANOMALY":264.0011,"EPHEMERIS_TYPE":0,"NORAD_CAT_ID":49308,"ELEMENT_SET_NO":999,"REV_AT_EPOCH":23285,"BSTAR":0.00017745636,"MEAN_MOTION_DOT":8.5e-7,"MEAN_MOTION_DDOT":0},{"OBJECT_NAME":"ONEWEB-0383","OBJECT_ID":"2021-090AG","EPOCH":"2026-07-11T05:41:14.340192","CLASSIFICATION_TYPE":"U","MEAN_MOTION":13.14502424,"ECCENTRICITY":0.0001763,"INCLINATION":87.8979,"RA_OF_ASC_NODE":284.909,"ARG_OF_PERICENTER":100.5556,"MEAN_ANOMALY":259.5773,"EPHEMERIS_TYPE":0,"NORAD_CAT_ID":49309,"ELEMENT_SET_NO":999,"REV_AT_EPOCH":23075,"BSTAR":0.00054481,"MEAN_MOTION_DOT":0.00000215,"MEAN_MOTION_DDOT":0},{"OBJECT_NAME":"ONEWEB-0384","OBJECT_ID":"2021-090AH","EPOCH":"2026-07-10T03:55:23.521152","CLASSIFICATION_TYPE":"U","MEAN_MOTION":13.20813924,"ECCENTRICITY":0.00016043,"INCLINATION":87.9196,"RA_OF_ASC_NODE":269.8999,"ARG_OF_PERICENTER":96.748,"MEAN_ANOMALY":263.3836,"EPHEMERIS_TYPE":0,"NORAD_CAT_ID":49310,"ELEMENT_SET_NO":999,"REV_AT_EPOCH":23286,"BSTAR":0.000086825104,"MEAN_MOTION_DOT":4.8e-7,"MEAN_MOTION_DDOT":0},{"OBJECT_NAME":"ONEWEB-0385","OBJECT_ID":"2021-090AJ","EPOCH":"2026-07-10T04:03:04.211136","CLASSIFICATION_TYPE":"U","MEAN_MOTION":13.20769588,"ECCENTRICITY":0.00019283,"INCLINATION":87.9188,"RA_OF_ASC_NODE":269.8609,"ARG_OF_PERICENTER":95.5653,"MEAN_ANOMALY":264.5701,"EPHEMERIS_TYPE":0,"NORAD_CAT_ID":49311,"ELEMENT_SET_NO":999,"REV_AT_EPOCH":23283,"BSTAR":0.000085770087,"MEAN_MOTION_DOT":4.8e-7,"MEAN_MOTION_DDOT":0},{"OBJECT_NAME":"ONEWEB-0386","OBJECT_ID":"2021-090AK","EPOCH":"2026-07-10T04:27:19.285632","CLASSIFICATION_TYPE":"U","MEAN_MOTION":13.20773378,"ECCENTRICITY":0.00018281,"INCLINATION":87.9185,"RA_OF_ASC_NODE":269.8498,"ARG_OF_PERICENTER":100.0586,"MEAN_ANOMALY":260.0754,"EPHEMERIS_TYPE":0,"NORAD_CAT_ID":49312,"ELEMENT_SET_NO":999,"REV_AT_EPOCH":23285,"BSTAR":0.000049430037,"MEAN_MOTION_DOT":3.3e-7,"MEAN_MOTION_DDOT":0}]}
