ONEWEB-0371             
1 49297U 21090U   26191.69306932 -.00000011  00000+0 -59151-4 0  9998
2 49297  87.9184 300.2883 0002068  98.3233 261.8134 13.19724768229554
ONEWEB-0372             
1 49298U 21090V   26191.19222798  .00000028  00000+0  37397-4 0  9995
2 49298  87.9187 269.8585 0002056 101.2314 258.9051 13.20773628232873
ONEWEB-0373             
1 49299U 21090W   26192.20246677 -.00000046  00000+0 -14476-3 0  9995
2 49299  87.9185 269.6566 0002128  96.1395 263.9981 13.20772667234197
ONEWEB-0374             
1 49300U 21090X   26191.25853453  .00000203  00000+0  51224-3 0  9993
2 49300  87.8980 285.1001 0001633  90.8626 269.2691 13.14502596230599
ONEWEB-0375             
1 49301U 21090Y   26192.19068556  .00000015  00000+0  52435-5 0  9998
2 49301  87.9187 269.6511 0001813  83.7951 276.3388 13.20772765233695
ONEWEB-0376             
1 49302U 21090Z   26191.69148704 -.00000028  00000+0 -10159-3 0  9998
2 49302  87.9188 300.2876 0002054 104.1754 255.9607 13.19725845229552
ONEWEB-0377             
1 49303U 21090AA  26192.17735854  .00000166  00000+0  37650-3 0  9997
2 49303  87.9210 269.6562 0001686  90.2010 269.9317 13.20772484233684
ONEWEB-0378             
1 49304U 21090AB  26192.19756907 -.00000048  00000+0 -15088-3 0  9994
2 49304  87.9183 269.6557 0001963  96.9590 263.1767 13.20771471232951
ONEWEB-0379             
1 49305U 21090AC  26190.26424924  .00000186  00000+0  46664-3 0  9997
2 49305  87.8976 285.3088 0001886 102.1027 258.0314 13.14501939230462
ONEWEB-0380             
1 49306U 21090AD  26191.68833683 -.00000012  00000+0 -62451-4 0  9994
2 49306  87.9182 300.2915 0002018  94.2723 265.8641 13.19726361229528
ONEWEB-0381             
1 49307U 21090AE  26192.17383891  .00000032  00000+0  46202-4 0  9997
2 49307  87.9190 269.6611 0001897  91.7139 268.4211 13.20773123232993
ONEWEB-0382             
1 49308U 21090AF  26191.17555344  .00000085  00000+0  17746-3 0  9999
2 49308  87.9183 269.8543 0001799  96.1327 264.0011 13.20771662232852
ONEWEB-0383             
1 49309U 21090AG  26192.23697153  .00000215  00000+0  54481-3 0  9995
2 49309  87.8979 284.9090 0001763 100.5556 259.5773 13.14502424230757
ONEWEB-0384             
1 49310U 21090AH  26191.16346668  .00000048  00000+0  86825-4 0  9992
2 49310  87.9196 269.8999 0001604  96.7480 263.3836 13.20813924232861
ONEWEB-0385             
1 49311U 21090AJ  26191.16879874  .00000048  00000+0  85770-4 0  9991
2 49311  87.9188 269.8609 0001928  95.5653 264.5701 13.20769588232836
ONEWEB-0386             
1 49312U 21090AK  26191.18563988  .00000033  00000+0  49430-4 0  9997
2 49312  87.9185 269.8498 0001828 100.0586 260.0754 13.20773378232859
